{
  "type": "FeatureCollection",
  "features": [
    {
      "type": "Feature",
      "properties": {
        "norad_id": 38867,
        "name": "INTELSAT 23 (IS-23)",
        "group": "intelsat",
        "lat": -0.0061002654592824815,
        "lon": -111.30127535456907,
        "alt_km": 35783.913039086925,
        "timestamp": "2025-12-09T14:52:25.833831+00:00",
        "meta_object_name": "INTELSAT 23 (IS-23)",
        "meta_object_id": "2012-057A",
        "meta_epoch": "2025-12-09T04:38:57.249888",
        "meta_mean_motion": 1.00260511,
        "meta_eccentricity": 0.00020435,
        "meta_inclination": 0.0419,
        "meta_ra_of_asc_node": 93.2966,
        "meta_arg_of_pericenter": 103.9407,
        "meta_mean_anomaly": 257.6748,
        "meta_ephemeris_type": 0,
        "meta_classification_type": "U",
        "meta_norad_cat_id": 38867,
        "meta_element_set_no": 999,
        "meta_rev_at_epoch": 4805,
        "meta_bstar": 0,
        "meta_mean_motion_dot": -2.83e-06,
        "meta_mean_motion_ddot": 0,
        "tle_line1": "1 38867U 12057A   25343.19371817 -.00000283  00000+0  00000+0 0  9993",
        "tle_line2": "2 38867   0.0419  93.2966 0002043 103.9407 257.6748  1.00260511 48058"
      },
      "geometry": {
        "type": "Point",
        "coordinates": [
          -111.30127535456907,
          -0.0061002654592824815
        ]
      }
    },
    {
      "type": "Feature",
      "properties": {
        "norad_id": 39360,
        "name": "FM-6",
        "group": "intelsat",
        "lat": -0.00017509587822509462,
        "lon": -174.42183562509476,
        "alt_km": 35773.92465495612,
        "timestamp": "2025-12-09T14:52:25.833843+00:00",
        "meta_object_name": "FM-6",
        "meta_object_id": "2013-058A",
        "meta_epoch": "2025-12-09T01:36:38.760192",
        "meta_mean_motion": 1.00271481,
        "meta_eccentricity": 0.00030137,
        "meta_inclination": 0.0026,
        "meta_ra_of_asc_node": 36.2279,
        "meta_arg_of_pericenter": 134.4121,
        "meta_mean_anomaly": 175.4422,
        "meta_ephemeris_type": 0,
        "meta_classification_type": "U",
        "meta_norad_cat_id": 39360,
        "meta_element_set_no": 999,
        "meta_rev_at_epoch": 4416,
        "meta_bstar": 0,
        "meta_mean_motion_dot": -1.5e-07,
        "meta_mean_motion_ddot": 0,
        "tle_line1": "1 39360U 13058A   25343.06711528 -.00000015  00000+0  00000+0 0  9990",
        "tle_line2": "2 39360   0.0026  36.2279 0003013 134.4121 175.4422  1.00271481 44167"
      },
      "geometry": {
        "type": "Point",
        "coordinates": [
          -174.42183562509476,
          -0.00017509587822509462
        ]
      }
    },
    {
      "type": "Feature",
      "properties": {
        "norad_id": 40271,
        "name": "INTELSAT 30 (IS-30)",
        "group": "intelsat",
        "lat": -0.012779108619471303,
        "lon": -153.32863446134732,
        "alt_km": 35788.60768203296,
        "timestamp": "2025-12-09T14:52:25.833855+00:00",
        "meta_object_name": "INTELSAT 30 (IS-30)",
        "meta_object_id": "2014-062A",
        "meta_epoch": "2025-12-09T04:04:38.822592",
        "meta_mean_motion": 1.00272205,
        "meta_eccentricity": 0.00013103,
        "meta_inclination": 0.013,
        "meta_ra_of_asc_node": 15.3198,
        "meta_arg_of_pericenter": 73.1869,
        "meta_mean_anomaly": 315.7647,
        "meta_ephemeris_type": 0,
        "meta_classification_type": "U",
        "meta_norad_cat_id": 40271,
        "meta_element_set_no": 999,
        "meta_rev_at_epoch": 487,
        "meta_bstar": 0,
        "meta_mean_motion_dot": -1.49e-06,
        "meta_mean_motion_ddot": 0,
        "tle_line1": "1 40271U 14062A   25343.16989378 -.00000149  00000+0  00000+0 0  9998",
        "tle_line2": "2 40271   0.0130  15.3198 0001310  73.1869 315.7647  1.00272205  4877"
      },
      "geometry": {
        "type": "Point",
        "coordinates": [
          -153.32863446134732,
          -0.012779108619471303
        ]
      }
    },
    {
      "type": "Feature",
      "properties": {
        "norad_id": 40333,
        "name": "DIRECTV 14",
        "group": "intelsat",
        "lat": -0.02783906064484921,
        "lon": -157.50831881227137,
        "alt_km": 35785.672268019945,
        "timestamp": "2025-12-09T14:52:25.833866+00:00",
        "meta_object_name": "DIRECTV 14",
        "meta_object_id": "2014-078B",
        "meta_epoch": "2025-12-09T07:01:22.702368",
        "meta_mean_motion": 1.002696,
        "meta_eccentricity": 2.52e-05,
        "meta_inclination": 0.0178,
        "meta_ra_of_asc_node": 330.993,
        "meta_arg_of_pericenter": 244.1415,
        "meta_mean_anomaly": 229.2783,
        "meta_ephemeris_type": 0,
        "meta_classification_type": "U",
        "meta_norad_cat_id": 40333,
        "meta_element_set_no": 999,
        "meta_rev_at_epoch": 4014,
        "meta_bstar": 0,
        "meta_mean_motion_dot": -1.23e-06,
        "meta_mean_motion_ddot": 0,
        "tle_line1": "1 40333U 14078B   25343.29262387 -.00000123  00000+0  00000+0 0  9994",
        "tle_line2": "2 40333   0.0178 330.9930 0000252 244.1415 229.2783  1.00269600 40144"
      },
      "geometry": {
        "type": "Point",
        "coordinates": [
          -157.50831881227137,
          -0.02783906064484921
        ]
      }
    },
    {
      "type": "Feature",
      "properties": {
        "norad_id": 40663,
        "name": "DIRECTV 15",
        "group": "intelsat",
        "lat": 0.018620684382271883,
        "lon": -161.1600506930904,
        "alt_km": 35786.80345798647,
        "timestamp": "2025-12-09T14:52:25.833878+00:00",
        "meta_object_name": "DIRECTV 15",
        "meta_object_id": "2015-026A",
        "meta_epoch": "2025-12-09T06:59:11.880672",
        "meta_mean_motion": 1.00269121,
        "meta_eccentricity": 3.089e-05,
        "meta_inclination": 0.0389,
        "meta_ra_of_asc_node": 80.9125,
        "meta_arg_of_pericenter": 206.8649,
        "meta_mean_anomaly": 152.4404,
        "meta_ephemeris_type": 0,
        "meta_classification_type": "U",
        "meta_norad_cat_id": 40663,
        "meta_element_set_no": 999,
        "meta_rev_at_epoch": 3855,
        "meta_bstar": 0,
        "meta_mean_motion_dot": -1e-06,
        "meta_mean_motion_ddot": 0,
        "tle_line1": "1 40663U 15026A   25343.29110973 -.00000100  00000+0  00000+0 0  9992",
        "tle_line2": "2 40663   0.0389  80.9125 0000308 206.8649 152.4404  1.00269121 38555"
      },
      "geometry": {
        "type": "Point",
        "coordinates": [
          -161.1600506930904,
          0.018620684382271883
        ]
      }
    },
    {
      "type": "Feature",
      "properties": {
        "norad_id": 40664,
        "name": "SKY MEXICO-1",
        "group": "intelsat",
        "lat": -0.006563322965588298,
        "lon": -137.07921365137605,
        "alt_km": 35779.06162548661,
        "timestamp": "2025-12-09T14:52:25.833889+00:00",
        "meta_object_name": "SKY MEXICO-1",
        "meta_object_id": "2015-026B",
        "meta_epoch": "2025-12-09T07:13:56.478432",
        "meta_mean_motion": 1.00270797,
        "meta_eccentricity": 0.00027533,
        "meta_inclination": 0.0247,
        "meta_ra_of_asc_node": 61.5977,
        "meta_arg_of_pericenter": 212.4808,
        "meta_mean_anomaly": 193.9352,
        "meta_ephemeris_type": 0,
        "meta_classification_type": "U",
        "meta_norad_cat_id": 40664,
        "meta_element_set_no": 999,
        "meta_rev_at_epoch": 3855,
        "meta_bstar": 0,
        "meta_mean_motion_dot": -2.32e-06,
        "meta_mean_motion_ddot": 0,
        "tle_line1": "1 40664U 15026B   25343.30134813 -.00000232  00000+0  00000+0 0  9990",
        "tle_line2": "2 40664   0.0247  61.5977 0002753 212.4808 193.9352  1.00270797 38558"
      },
      "geometry": {
        "type": "Point",
        "coordinates": [
          -137.07921365137605,
          -0.006563322965588298
        ]
      }
    },
    {
      "type": "Feature",
      "properties": {
        "norad_id": 40874,
        "name": "INTELSAT 34 (IS-34)",
        "group": "intelsat",
        "lat": -0.02876923855569093,
        "lon": -113.77614303296845,
        "alt_km": 35785.96019219495,
        "timestamp": "2025-12-09T14:52:25.833901+00:00",
        "meta_object_name": "INTELSAT 34 (IS-34)",
        "meta_object_id": "2015-039A",
        "meta_epoch": "2025-12-09T06:27:13.961376",
        "meta_mean_motion": 1.00270047,
        "meta_eccentricity": 5.746e-05,
        "meta_inclination": 0.014,
        "meta_ra_of_asc_node": 305.5932,
        "meta_arg_of_pericenter": 226.3595,
        "meta_mean_anomaly": 307.6252,
        "meta_ephemeris_type": 0,
        "meta_classification_type": "U",
        "meta_norad_cat_id": 40874,
        "meta_element_set_no": 999,
        "meta_rev_at_epoch": 3772,
        "meta_bstar": 0,
        "meta_mean_motion_dot": -2.83e-06,
        "meta_mean_motion_ddot": 0,
        "tle_line1": "1 40874U 15039A   25343.26891159 -.00000283  00000+0  00000+0 0  9991",
        "tle_line2": "2 40874   0.0140 305.5932 0000574 226.3595 307.6252  1.00270047 37720"
      },
      "geometry": {
        "type": "Point",
        "coordinates": [
          -113.77614303296845,
          -0.02876923855569093
        ]
      }
    }
  ]
}